GSAT-29                 
1 43698U 18089A   26192.07680012  .00000092  00000+0  00000+0 0  9999
2 43698   0.0560 252.0577 0003005 191.6281 288.0312  1.00274484 28023
ES'HAIL 2               
1 43700U 18090A   26192.06641986  .00000000  00000+0  00000+0 0  9990
2 43700   0.0255  34.7242 0002169 125.5586 178.4100  1.00269115 27915
GEO-KOMPSAT-2A          
1 43823U 18100A   26192.17892022 -.00000337  00000+0  00000+0 0  9993
2 43823   0.0252 122.2948 0001960 339.2445  20.2286  1.00271752 27874
GSAT-11                 
1 43824U 18100B   26192.16641972 -.00000070  00000+0  00000+0 0  9993
2 43824   0.0609 262.3426 0007667 194.8342 325.8214  1.00270884 27712
GSAT-7A                 
1 43864U 18105A   26192.07836013  .00000035  00000+0  00000+0 0  9994
2 43864   0.0739  92.2227 0001657  16.5364 271.1979  1.00270043 27680
COSMOS 2533             
1 43867U 18107A   26192.16641973 -.00000031  00000+0  00000+0 0  9995
2 43867   0.0412 120.3626 0000446 116.7484 181.8630  1.00271664 27689
TJS-3                   
1 43874U 18110A   26191.70406181 -.00000210  00000+0  00000+0 0  9995
2 43874   2.6024  80.2088 0002479  88.3832 161.7002  1.00272879 27655
ZHONGXING-2D            
1 43920U 19001A   26192.16225328 -.00000330  00000+0  00000+0 0  9993
2 43920   0.0593 243.5480 0000398 103.3362 130.5767  1.00272917 54323
HELLAS-SAT 4 & SGS-1    
1 44034U 19007A   26192.07359343  .00000160  00000+0  00000+0 0  9991
2 44034   0.0662 127.3893 0005760  20.5607 206.5452  1.00270869 27604
GSAT-31                 
1 44035U 19007B   26192.07541344  .00000000  00000+0  00000+0 0  9999
2 44035   0.0218  57.0844 0000728 175.5270 131.4188  1.00270480 27200
NUSANTARA SATU          
1 44048U 19009A   26192.18517009 -.00000228  00000+0  00000+0 0  9991
2 44048   0.0336 125.8641 0004538   1.8585  14.0358  1.00270084 27011
ZHONGXING-6C            
1 44067U 19012A   26192.15669557 -.00000328  00000+0  00000+0 0  9990
2 44067   0.0804  73.4451 0014652 340.0799  62.4048  1.00272950 26984
WGS 10 (USA 291)        
1 44071U 19014A   26192.08149962  .00000054  00000+0  00000+0 0  9997
2 44071   0.0187  41.4734 0000222 217.2313 119.9339  1.00272308 26851
TIANLIAN 2-01           
1 44076U 19017A   26192.16641972 -.00000100  00000+0  00000+0 0  9995
2 44076   0.5990  83.0672 0001425  79.1223 263.8222  1.00270900 26886
ARABSAT-6A              
1 44186U 19021A   26192.07194676  .00000161  00000+0  00000+0 0  9992
2 44186   0.0462  13.4635 0001334 259.4847  72.4524  1.00276411 26395
BEIDOU-3 IGSO-1         
1 44204U 19023A   26191.51924733 -.00000208  00000+0  00000+0 0  9991
2 44204  58.7277  37.4104 0025593 224.0818 332.9010  1.00284391  7441
BEIDOU-2 G8             
1 44231U 19027A   26191.95174676 -.00000240  00000+0  00000+0 0  9992
2 44231   1.7146  74.5109 0009790 283.0765  58.4205  1.00273180 26315
YAMAL 601               
1 44307U 19031A   26192.07558677  .00000127  00000+0  00000+0 0  9995
2 44307   0.0182  57.3328 0002296  53.2844 254.5927  1.00272737 26162
AT&T T-16               
1 44333U 19034A   26192.20121855 -.00000108  00000+0  00000+0 0  9996
2 44333   0.0141  66.5634 0000789 251.1395 302.9929  1.00272187 25879
EUTELSAT 7C             
1 44334U 19034B   26192.07752972  .00000056  00000+0  00000+0 0  9993
2 44334   0.0768 180.6934 0003304 279.2014 224.0246  1.00273692  7071
BEIDOU-3 IGSO-2         
1 44337U 19035A   26191.80437311 -.00000093  00000+0  00000+0 0  9996
2 44337  55.2507 158.6561 0039621 216.3018 322.0982  1.00258870 25904
COSMOS 2539             
1 44457U 19048A   26191.99704161  .00000089  00000+0  00000+0 0  9997
2 44457   0.0358 100.2863 0000132  90.2462 109.3036  1.00270555 25465
EDRS-C                  
1 44475U 19049A   26192.14003159  .00000000  00000+0  00000+0 0  9998
2 44475   0.0218  65.5112 0000871  63.5976 352.8498  1.00270686 25454
INTELSAT 39 (IS-39)     
1 44476U 19049B   26192.07818678  .00000000  00000+0  00000+0 0  9991
2 44476   0.0273  37.2529 0000917 284.6695  57.1654  1.00270126 25367
AMOS-17                 
1 44479U 19050A   26192.07197479  .00000117  00000+0  00000+0 0  9994
2 44479   0.0167 351.3337 0001309 124.5656 215.9730  1.00271928 25421
AEHF-5 (USA 292)        
1 44481U 19051A   26192.08451347 -.00000249  00000+0  00000+0 0  9993
2 44481   1.4348 338.0477 0065002 357.8655  76.5228  1.00275152 25502
EUTELSAT 5 WEST B       
1 44624U 19067A   26192.17405793 -.00000035  00000+0  00000+0 0  9996
2 44624   0.0632 349.2671 0003003 122.7689 234.7046  1.00271352 24672
MEV-1                   
1 44625U 19067B   26167.92963140 -.00000149  00000+0  00000+0 0  9993
2 44625   0.8740 268.9828 0002794 179.8034 307.2103  1.00269616 61744
TJS-4                   
1 44637U 19070A   26192.01116836 -.00000162  00000+0  00000+0 0  9995
2 44637   0.0730  87.0636 0003256 320.6179 328.8002  1.00269749 24771
TIBA-1                  
1 44800U 19080A   26192.06641986  .00000163  00000+0  00000+0 0  9992
2 44800   0.0505   3.6720 0001860 120.1192 224.5925  1.00268631 24290
INMARSAT GX5            
1 44801U 19080B   26192.19627999  .00000082  00000+0  00000+0 0  9995
2 44801   0.0410  29.9609 0001979  77.5987 263.2278  1.00272224  7027
JCSAT-18 (KACIFIC 1)    
1 44868U 19091A   26191.81043980 -.00000189  00000+0  00000+0 0  9999
2 44868   0.0514 231.6171 0000733 273.2671 225.6070  1.00285607 24247
