OBJECT_NAME,OBJECT_ID,EPOCH,MEAN_MOTION,ECCENTRICITY,INCLINATION,RA_OF_ASC_NODE,ARG_OF_PERICENTER,MEAN_ANOMALY,EPHEMERIS_TYPE,CLASSIFICATION_TYPE,NORAD_CAT_ID,ELEMENT_SET_NO,REV_AT_EPOCH,BSTAR,MEAN_MOTION_DOT,MEAN_MOTION_DDOT
GSAT-29,2018-089A,2026-07-11T01:50:35.530368,1.00274484,.0003005,0.0560,252.0577,191.6281,288.0312,0,U,43698,999,2802,0,.92E-6,0
ES'HAIL 2,2018-090A,2026-07-11T01:35:38.675904,1.00269115,.0002169,0.0255,34.7242,125.5586,178.4100,0,U,43700,999,2791,0,0,0
GEO-KOMPSAT-2A,2018-100A,2026-07-11T04:17:38.707008,1.00271752,.000196,0.0252,122.2948,339.2445,20.2286,0,U,43823,999,2787,0,-.337E-5,0
GSAT-11,2018-100B,2026-07-11T03:59:38.663808,1.00270884,.0007667,0.0609,262.3426,194.8342,325.8214,0,U,43824,999,2771,0,-.7E-6,0
GSAT-7A,2018-105A,2026-07-11T01:52:50.315232,1.00270043,.0001657,0.0739,92.2227,16.5364,271.1979,0,U,43864,999,2768,0,.35E-6,0
COSMOS 2533,2018-107A,2026-07-11T03:59:38.664672,1.00271664,.0000446,0.0412,120.3626,116.7484,181.8630,0,U,43867,999,2768,0,-.31E-6,0
TJS-3,2018-110A,2026-07-10T16:53:50.940384,1.00272879,.0002479,2.6024,80.2088,88.3832,161.7002,0,U,43874,999,2765,0,-.21E-5,0
ZHONGXING-2D,2019-001A,2026-07-11T03:53:38.683392,1.00272917,.0000398,0.0593,243.5480,103.3362,130.5767,0,U,43920,999,5432,0,-.33E-5,0
HELLAS-SAT 4 & SGS-1,2019-007A,2026-07-11T01:45:58.472352,1.00270869,.000576,0.0662,127.3893,20.5607,206.5452,0,U,44034,999,2760,0,.16E-5,0
GSAT-31,2019-007B,2026-07-11T01:48:35.721216,1.00270480,.0000728,0.0218,57.0844,175.5270,131.4188,0,U,44035,999,2720,0,0,0
NUSANTARA SATU,2019-009A,2026-07-11T04:26:38.695776,1.00270084,.0004538,0.0336,125.8641,1.8585,14.0358,0,U,44048,999,2701,0,-.228E-5,0
ZHONGXING-6C,2019-012A,2026-07-11T03:45:38.497248,1.00272950,.0014652,0.0804,73.4451,340.0799,62.4048,0,U,44067,999,2698,0,-.328E-5,0
WGS 10 (USA 291),2019-014A,2026-07-11T01:57:21.567168,1.00272308,.0000222,0.0187,41.4734,217.2313,119.9339,0,U,44071,999,2685,0,.54E-6,0
TIANLIAN 2-01,2019-017A,2026-07-11T03:59:38.663808,1.00270900,.0001425,0.5990,83.0672,79.1223,263.8222,0,U,44076,999,2688,0,-.1E-5,0
ARABSAT-6A,2019-021A,2026-07-11T01:43:36.200064,1.00276411,.0001334,0.0462,13.4635,259.4847,72.4524,0,U,44186,999,2639,0,.161E-5,0
BEIDOU-3 IGSO-1,2019-023A,2026-07-10T12:27:42.969312,1.00284391,.0025593,58.7277,37.4104,224.0818,332.9010,0,U,44204,999,744,0,-.208E-5,0
BEIDOU-2 G8,2019-027A,2026-07-10T22:50:30.920064,1.00273180,.000979,1.7146,74.5109,283.0765,58.4205,0,U,44231,999,2631,0,-.24E-5,0
YAMAL 601,2019-031A,2026-07-11T01:48:50.696928,1.00272737,.0002296,0.0182,57.3328,53.2844,254.5927,0,U,44307,999,2616,0,.127E-5,0
AT&T T-16,2019-034A,2026-07-11T04:49:45.282720,1.00272187,.0000789,0.0141,66.5634,251.1395,302.9929,0,U,44333,999,2587,0,-.108E-5,0
EUTELSAT 7C,2019-034B,2026-07-11T01:51:38.567808,1.00273692,.0003304,0.0768,180.6934,279.2014,224.0246,0,U,44334,999,707,0,.56E-6,0
BEIDOU-3 IGSO-2,2019-035A,2026-07-10T19:18:17.836704,1.00258870,.0039621,55.2507,158.6561,216.3018,322.0982,0,U,44337,999,2590,0,-.93E-6,0
COSMOS 2539,2019-048A,2026-07-10T23:55:44.395104,1.00270555,.0000132,0.0358,100.2863,90.2462,109.3036,0,U,44457,999,2546,0,.89E-6,0
EDRS-C,2019-049A,2026-07-11T03:21:38.729376,1.00270686,.0000871,0.0218,65.5112,63.5976,352.8498,0,U,44475,999,2545,0,0,0
INTELSAT 39 (IS-39),2019-049B,2026-07-11T01:52:35.337792,1.00270126,.0000917,0.0273,37.2529,284.6695,57.1654,0,U,44476,999,2536,0,0,0
AMOS-17,2019-050A,2026-07-11T01:43:38.621856,1.00271928,.0001309,0.0167,351.3337,124.5656,215.9730,0,U,44479,999,2542,0,.117E-5,0
AEHF-5 (USA 292),2019-051A,2026-07-11T02:01:41.963808,1.00275152,.0065002,1.4348,338.0477,357.8655,76.5228,0,U,44481,999,2550,0,-.249E-5,0
EUTELSAT 5 WEST B,2019-067A,2026-07-11T04:10:38.605152,1.00271352,.0003003,0.0632,349.2671,122.7689,234.7046,0,U,44624,999,2467,0,-.35E-6,0
MEV-1,2019-067B,2026-06-16T22:18:40.152960,1.00269616,.00027946,0.8740,268.9828,179.8034,307.2103,0,U,44625,999,6174,0,-.149E-5,0
TJS-4,2019-070A,2026-07-11T00:16:04.946304,1.00269749,.0003256,0.0730,87.0636,320.6179,328.8002,0,U,44637,999,2477,0,-.162E-5,0
TIBA-1,2019-080A,2026-07-11T01:35:38.675904,1.00268631,.000186,0.0505,3.6720,120.1192,224.5925,0,U,44800,999,2429,0,.163E-5,0
INMARSAT GX5,2019-080B,2026-07-11T04:42:38.591136,1.00272224,.0001979,0.0410,29.9609,77.5987,263.2278,0,U,44801,999,702,0,.82E-6,0
JCSAT-18 (KACIFIC 1),2019-091A,2026-07-10T19:27:01.998720,1.00285607,.0000733,0.0514,231.6171,273.2671,225.6070,0,U,44868,999,2424,0,-.189E-5,0
